ISS OBJECT XW           
1 66910U 98067XW  26060.35238090  .00122188  00000+0  11540-2 0  9990
2 66910  51.6248 107.9715 0004687  42.0873 318.0482 15.66113269 13874
ISS OBJECT XX           
1 66911U 98067XX  26060.44869364  .00213262  00000+0  16113-2 0  9990
2 66911  51.6225 106.3545 0006815  35.7649 324.3804 15.71220357 13892
ISS OBJECT XY           
1 66912U 98067XY  26060.39671390  .00088253  00000+0  98573-3 0  9996
2 66912  51.6276 109.0311 0002711  45.1054 315.0160 15.62014656 13857
ISS OBJECT XZ           
1 67683U 98067XZ  26060.16061763  .00038400  00000+0  65168-3 0  9997
2 67683  51.6321 114.2060 0009653 157.7357 202.4053 15.51054892  3461
GXIBA-1                 
1 67684U 98067YA  26060.40241000  .00073678  00000+0  11590-2 0  9994
2 67684  51.6307 112.8204 0011031 148.9341 211.2303 15.52871898  3503
CORAL                   
1 67685U 98067YB  26060.41558806  .00045799  00000+0  76611-3 0  9990
2 67685  51.6315 112.9082 0011589 154.5249 205.6314 15.51356856  3506
ISS OBJECT YC           
1 67686U 98067YC  26060.41246377  .00054052  00000+0  89126-3 0  9995
2 67686  51.6316 112.8884 0007665 122.7439 237.4290 15.51728286  3501
LEOPARD                 
1 67687U 98067YD  26060.35239441  .00042377  00000+0  71470-3 0  9993
2 67687  51.6314 113.2370 0007668 126.4890 233.6807 15.51203161  3412
ISS OBJECT YE           
1 67688U 98067YE  26060.41383434  .00050179  00000+0  83355-3 0  9997
2 67688  51.6318 112.8976 0007609 123.4438 236.7280 15.51553933  3429
CREW DRAGON 12          
1 67796U 26031A   26060.44612133  .00009769  00000+0  18913-3 0  9990
2 67796  51.6323 113.1104 0008284 145.6657 214.4868 15.48380101554798
