CCSDS_OMM_VERS = 2.0
CREATION_DATE  = 
ORIGINATOR     = 

OBJECT_NAME    = ISS OBJECT XW
OBJECT_ID      = 1998-067XW
CENTER_NAME    = EARTH
REF_FRAME      = TEME
TIME_SYSTEM    = UTC
MEAN_ELEMENT_THEORY = SGP/SGP4

EPOCH          = 2026-03-01T08:27:25.709760
MEAN_MOTION    = 15.66113269
ECCENTRICITY   = .0004687
INCLINATION    = 51.6248
RA_OF_ASC_NODE = 107.9715
ARG_OF_PERICENTER = 42.0873
MEAN_ANOMALY   = 318.0482

EPHEMERIS_TYPE = 0
CLASSIFICATION_TYPE = U
NORAD_CAT_ID   = 66910
ELEMENT_SET_NO = 999
REV_AT_EPOCH   = 1387
BSTAR          = .1154E-2
MEAN_MOTION_DOT = .122188E-2
MEAN_MOTION_DDOT = 0

CCSDS_OMM_VERS = 2.0
CREATION_DATE  = 
ORIGINATOR     = 

OBJECT_NAME    = ISS OBJECT XX
OBJECT_ID      = 1998-067XX
CENTER_NAME    = EARTH
REF_FRAME      = TEME
TIME_SYSTEM    = UTC
MEAN_ELEMENT_THEORY = SGP/SGP4

EPOCH          = 2026-03-01T10:46:07.130496
MEAN_MOTION    = 15.71220357
ECCENTRICITY   = .0006815
INCLINATION    = 51.6225
RA_OF_ASC_NODE = 106.3545
ARG_OF_PERICENTER = 35.7649
MEAN_ANOMALY   = 324.3804

EPHEMERIS_TYPE = 0
CLASSIFICATION_TYPE = U
NORAD_CAT_ID   = 66911
ELEMENT_SET_NO = 999
REV_AT_EPOCH   = 1389
BSTAR          = .16113E-2
MEAN_MOTION_DOT = .213262E-2
MEAN_MOTION_DDOT = 0

CCSDS_OMM_VERS = 2.0
CREATION_DATE  = 
ORIGINATOR     = 

OBJECT_NAME    = ISS OBJECT XY
OBJECT_ID      = 1998-067XY
CENTER_NAME    = EARTH
REF_FRAME      = TEME
TIME_SYSTEM    = UTC
MEAN_ELEMENT_THEORY = SGP/SGP4

EPOCH          = 2026-03-01T09:31:16.080960
MEAN_MOTION    = 15.62014656
ECCENTRICITY   = .0002711
INCLINATION    = 51.6276
RA_OF_ASC_NODE = 109.0311
ARG_OF_PERICENTER = 45.1054
MEAN_ANOMALY   = 315.0160

EPHEMERIS_TYPE = 0
CLASSIFICATION_TYPE = U
NORAD_CAT_ID   = 66912
ELEMENT_SET_NO = 999
REV_AT_EPOCH   = 1385
BSTAR          = .98573E-3
MEAN_MOTION_DOT = .88253E-3
MEAN_MOTION_DDOT = 0

CCSDS_OMM_VERS = 2.0
CREATION_DATE  = 
ORIGINATOR     = 

OBJECT_NAME    = ISS OBJECT XZ
OBJECT_ID      = 1998-067XZ
CENTER_NAME    = EARTH
REF_FRAME      = TEME
TIME_SYSTEM    = UTC
MEAN_ELEMENT_THEORY = SGP/SGP4

EPOCH          = 2026-03-01T03:51:17.363232
MEAN_MOTION    = 15.51054892
ECCENTRICITY   = .00096536
INCLINATION    = 51.6321
RA_OF_ASC_NODE = 114.2060
ARG_OF_PERICENTER = 157.7357
MEAN_ANOMALY   = 202.4053

EPHEMERIS_TYPE = 0
CLASSIFICATION_TYPE = U
NORAD_CAT_ID   = 67683
ELEMENT_SET_NO = 999
REV_AT_EPOCH   = 346
BSTAR          = .65168236E-3
MEAN_MOTION_DOT = .384E-3
MEAN_MOTION_DDOT = 0

CCSDS_OMM_VERS = 2.0
CREATION_DATE  = 
ORIGINATOR     = 

OBJECT_NAME    = GXIBA-1
OBJECT_ID      = 1998-067YA
CENTER_NAME    = EARTH
REF_FRAME      = TEME
TIME_SYSTEM    = UTC
MEAN_ELEMENT_THEORY = SGP/SGP4

EPOCH          = 2026-03-01T09:39:28.224000
MEAN_MOTION    = 15.52871898
ECCENTRICITY   = .0011031
INCLINATION    = 51.6307
RA_OF_ASC_NODE = 112.8204
ARG_OF_PERICENTER = 148.9341
MEAN_ANOMALY   = 211.2303

EPHEMERIS_TYPE = 0
CLASSIFICATION_TYPE = U
NORAD_CAT_ID   = 67684
ELEMENT_SET_NO = 999
REV_AT_EPOCH   = 350
BSTAR          = .1159E-2
MEAN_MOTION_DOT = .73678E-3
MEAN_MOTION_DDOT = 0

CCSDS_OMM_VERS = 2.0
CREATION_DATE  = 
ORIGINATOR     = 

OBJECT_NAME    = CORAL
OBJECT_ID      = 1998-067YB
CENTER_NAME    = EARTH
REF_FRAME      = TEME
TIME_SYSTEM    = UTC
MEAN_ELEMENT_THEORY = SGP/SGP4

EPOCH          = 2026-03-01T09:58:26.808384
MEAN_MOTION    = 15.51356856
ECCENTRICITY   = .0011589
INCLINATION    = 51.6315
RA_OF_ASC_NODE = 112.9082
ARG_OF_PERICENTER = 154.5249
MEAN_ANOMALY   = 205.6314

EPHEMERIS_TYPE = 0
CLASSIFICATION_TYPE = U
NORAD_CAT_ID   = 67685
ELEMENT_SET_NO = 999
REV_AT_EPOCH   = 350
BSTAR          = .76611E-3
MEAN_MOTION_DOT = .45799E-3
MEAN_MOTION_DDOT = 0

CCSDS_OMM_VERS = 2.0
CREATION_DATE  = 
ORIGINATOR     = 

OBJECT_NAME    = ISS OBJECT YC
OBJECT_ID      = 1998-067YC
CENTER_NAME    = EARTH
REF_FRAME      = TEME
TIME_SYSTEM    = UTC
MEAN_ELEMENT_THEORY = SGP/SGP4

EPOCH          = 2026-03-01T09:53:56.869728
MEAN_MOTION    = 15.51728286
ECCENTRICITY   = .0007665
INCLINATION    = 51.6316
RA_OF_ASC_NODE = 112.8884
ARG_OF_PERICENTER = 122.7439
MEAN_ANOMALY   = 237.4290

EPHEMERIS_TYPE = 0
CLASSIFICATION_TYPE = U
NORAD_CAT_ID   = 67686
ELEMENT_SET_NO = 999
REV_AT_EPOCH   = 350
BSTAR          = .89126E-3
MEAN_MOTION_DOT = .54052E-3
MEAN_MOTION_DDOT = 0

CCSDS_OMM_VERS = 2.0
CREATION_DATE  = 
ORIGINATOR     = 

OBJECT_NAME    = LEOPARD
OBJECT_ID      = 1998-067YD
CENTER_NAME    = EARTH
REF_FRAME      = TEME
TIME_SYSTEM    = UTC
MEAN_ELEMENT_THEORY = SGP/SGP4

EPOCH          = 2026-03-01T08:27:26.877024
MEAN_MOTION    = 15.51203161
ECCENTRICITY   = .0007668
INCLINATION    = 51.6314
RA_OF_ASC_NODE = 113.2370
ARG_OF_PERICENTER = 126.4890
MEAN_ANOMALY   = 233.6807

EPHEMERIS_TYPE = 0
CLASSIFICATION_TYPE = U
NORAD_CAT_ID   = 67687
ELEMENT_SET_NO = 999
REV_AT_EPOCH   = 341
BSTAR          = .7147E-3
MEAN_MOTION_DOT = .42377E-3
MEAN_MOTION_DDOT = 0

CCSDS_OMM_VERS = 2.0
CREATION_DATE  = 
ORIGINATOR     = 

OBJECT_NAME    = ISS OBJECT YE
OBJECT_ID      = 1998-067YE
CENTER_NAME    = EARTH
REF_FRAME      = TEME
TIME_SYSTEM    = UTC
MEAN_ELEMENT_THEORY = SGP/SGP4

EPOCH          = 2026-03-01T09:55:55.286976
MEAN_MOTION    = 15.51553933
ECCENTRICITY   = .0007609
INCLINATION    = 51.6318
RA_OF_ASC_NODE = 112.8976
ARG_OF_PERICENTER = 123.4438
MEAN_ANOMALY   = 236.7280

EPHEMERIS_TYPE = 0
CLASSIFICATION_TYPE = U
NORAD_CAT_ID   = 67688
ELEMENT_SET_NO = 999
REV_AT_EPOCH   = 342
BSTAR          = .83355E-3
MEAN_MOTION_DOT = .50179E-3
MEAN_MOTION_DDOT = 0

CCSDS_OMM_VERS = 2.0
CREATION_DATE  = 
ORIGINATOR     = 

OBJECT_NAME    = CREW DRAGON 12
OBJECT_ID      = 2026-031A
CENTER_NAME    = EARTH
REF_FRAME      = TEME
TIME_SYSTEM    = UTC
MEAN_ELEMENT_THEORY = SGP/SGP4

EPOCH          = 2026-03-01T10:42:24.882912
MEAN_MOTION    = 15.48380101
ECCENTRICITY   = .0008284
INCLINATION    = 51.6323
RA_OF_ASC_NODE = 113.1104
ARG_OF_PERICENTER = 145.6657
MEAN_ANOMALY   = 214.4868

EPHEMERIS_TYPE = 0
CLASSIFICATION_TYPE = U
NORAD_CAT_ID   = 67796
ELEMENT_SET_NO = 999
REV_AT_EPOCH   = 55479
BSTAR          = .18913E-3
MEAN_MOTION_DOT = .9769E-4
MEAN_MOTION_DDOT = 0

